[{"OBJECT_NAME":"BEIJING 1","OBJECT_ID":"2005-043A","EPOCH":"2025-03-09T22:11:32.305344","MEAN_MOTION":14.6300758,"ECCENTRICITY":0.0013607,"INCLINATION":98.2266,"RA_OF_ASC_NODE":196.4683,"ARG_OF_PERICENTER":296.6343,"MEAN_ANOMALY":63.3465,"EPHEMERIS_TYPE":0,"CLASSIFICATION_TYPE":"U","NORAD_CAT_ID":28890,"ELEMENT_SET_NO":999,"REV_AT_EPOCH":3275,"BSTAR":0.00016499,"MEAN_MOTION_DOT":7.98e-6,"MEAN_MOTION_DDOT":0},{"OBJECT_NAME":"HUANJING 1A (HJ-1A)","OBJECT_ID":"2008-041A","EPOCH":"2025-03-09T22:45:15.128064","MEAN_MOTION":14.82165842,"ECCENTRICITY":0.0018534,"INCLINATION":97.6394,"RA_OF_ASC_NODE":69.3281,"ARG_OF_PERICENTER":217.8859,"MEAN_ANOMALY":142.1052,"EPHEMERIS_TYPE":0,"CLASSIFICATION_TYPE":"U","NORAD_CAT_ID":33320,"ELEMENT_SET_NO":999,"REV_AT_EPOCH":88959,"BSTAR":0.00044066,"MEAN_MOTION_DOT":3.47e-5,"MEAN_MOTION_DDOT":0},{"OBJECT_NAME":"HUANJING 1B (HJ-1B)","OBJECT_ID":"2008-041B","EPOCH":"2025-03-09T22:52:55.118208","MEAN_MOTION":14.81859062,"ECCENTRICITY":0.0035675,"INCLINATION":97.6297,"RA_OF_ASC_NODE":73.6346,"ARG_OF_PERICENTER":266.1853,"MEAN_ANOMALY":93.5282,"EPHEMERIS_TYPE":0,"CLASSIFICATION_TYPE":"U","NORAD_CAT_ID":33321,"ELEMENT_SET_NO":999,"REV_AT_EPOCH":88962,"BSTAR":0.00032817,"MEAN_MOTION_DOT":2.572e-5,"MEAN_MOTION_DDOT":0},{"OBJECT_NAME":"YAOGAN-4","OBJECT_ID":"2008-061A","EPOCH":"2025-03-09T20:49:00.158880","MEAN_MOTION":14.81606998,"ECCENTRICITY":0.0015767,"INCLINATION":97.8989,"RA_OF_ASC_NODE":2.3217,"ARG_OF_PERICENTER":137.8172,"MEAN_ANOMALY":222.4257,"EPHEMERIS_TYPE":0,"CLASSIFICATION_TYPE":"U","NORAD_CAT_ID":33446,"ELEMENT_SET_NO":999,"REV_AT_EPOCH":87687,"BSTAR":0.00031707,"MEAN_MOTION_DOT":2.444e-5,"MEAN_MOTION_DDOT":0},{"OBJECT_NAME":"DEIMOS-1","OBJECT_ID":"2009-041A","EPOCH":"2025-03-09T22:09:29.349504","MEAN_MOTION":14.74354905,"ECCENTRICITY":4.64e-5,"INCLINATION":97.6922,"RA_OF_ASC_NODE":242.9854,"ARG_OF_PERICENTER":174.0509,"MEAN_ANOMALY":186.0706,"EPHEMERIS_TYPE":0,"CLASSIFICATION_TYPE":"U","NORAD_CAT_ID":35681,"ELEMENT_SET_NO":999,"REV_AT_EPOCH":83845,"BSTAR":0.00023212,"MEAN_MOTION_DOT":1.491e-5,"MEAN_MOTION_DDOT":0},{"OBJECT_NAME":"UK-DMC 2","OBJECT_ID":"2009-041C","EPOCH":"2025-03-09T21:22:32.973024","MEAN_MOTION":14.74785423,"ECCENTRICITY":0.0001111,"INCLINATION":97.8149,"RA_OF_ASC_NODE":212.4821,"ARG_OF_PERICENTER":83.5252,"MEAN_ANOMALY":276.6084,"EPHEMERIS_TYPE":0,"CLASSIFICATION_TYPE":"U","NORAD_CAT_ID":35683,"ELEMENT_SET_NO":999,"REV_AT_EPOCH":83810,"BSTAR":0.00030209,"MEAN_MOTION_DOT":1.974e-5,"MEAN_MOTION_DDOT":0},{"OBJECT_NAME":"DMC3-FM1","OBJECT_ID":"2015-032A","EPOCH":"2025-03-09T21:58:13.761984","MEAN_MOTION":14.84821544,"ECCENTRICITY":0.0006613,"INCLINATION":97.7137,"RA_OF_ASC_NODE":305.6547,"ARG_OF_PERICENTER":130.9991,"MEAN_ANOMALY":229.1797,"EPHEMERIS_TYPE":0,"CLASSIFICATION_TYPE":"U","NORAD_CAT_ID":40715,"ELEMENT_SET_NO":999,"REV_AT_EPOCH":52099,"BSTAR":0.00016981,"MEAN_MOTION_DOT":1.391e-5,"MEAN_MOTION_DDOT":0},{"OBJECT_NAME":"DMC3-FM2","OBJECT_ID":"2015-032B","EPOCH":"2025-03-09T22:30:06.363360","MEAN_MOTION":14.84851812,"ECCENTRICITY":0.0008307,"INCLINATION":97.7193,"RA_OF_ASC_NODE":306.927,"ARG_OF_PERICENTER":137.9407,"MEAN_ANOMALY":222.2447,"EPHEMERIS_TYPE":0,"CLASSIFICATION_TYPE":"U","NORAD_CAT_ID":40716,"ELEMENT_SET_NO":999,"REV_AT_EPOCH":52099,"BSTAR":0.00016965,"MEAN_MOTION_DOT":1.39e-5,"MEAN_MOTION_DDOT":0},{"OBJECT_NAME":"DMC3-FM3","OBJECT_ID":"2015-032C","EPOCH":"2025-03-09T21:53:00.755520","MEAN_MOTION":14.84724206,"ECCENTRICITY":0.0009798,"INCLINATION":97.7245,"RA_OF_ASC_NODE":308.3068,"ARG_OF_PERICENTER":136.3056,"MEAN_ANOMALY":223.8936,"EPHEMERIS_TYPE":0,"CLASSIFICATION_TYPE":"U","NORAD_CAT_ID":40717,"ELEMENT_SET_NO":999,"REV_AT_EPOCH":52099,"BSTAR":0.00017263,"MEAN_MOTION_DOT":1.411e-5,"MEAN_MOTION_DDOT":0}]
