BEIJING 1               
1 28890U 05043A   25068.92467946  .00000798  00000+0  16499-3 0  9992
2 28890  98.2266 196.4683 0013607 296.6343  63.3465 14.63007580 32757
HUANJING 1A (HJ-1A)     
1 33320U 08041A   25068.94809176  .00003470  00000+0  44066-3 0  9995
2 33320  97.6394  69.3281 0018534 217.8859 142.1052 14.82165842889596
HUANJING 1B (HJ-1B)     
1 33321U 08041B   25068.95341572  .00002572  00000+0  32817-3 0  9991
2 33321  97.6297  73.6346 0035675 266.1853  93.5282 14.81859062889626
YAOGAN-4                
1 33446U 08061A   25068.86736295  .00002444  00000+0  31707-3 0  9996
2 33446  97.8989   2.3217 0015767 137.8172 222.4257 14.81606998876874
DEIMOS-1                
1 35681U 09041A   25068.92325636  .00001491  00000+0  23212-3 0  9991
2 35681  97.6922 242.9854 0000464 174.0509 186.0706 14.74354905838452
UK-DMC 2                
1 35683U 09041C   25068.89065941  .00001974  00000+0  30209-3 0  9999
2 35683  97.8149 212.4821 0001111  83.5252 276.6084 14.74785423838102
DMC3-FM1                
1 40715U 15032A   25068.91543706  .00001391  00000+0  16981-3 0  9995
2 40715  97.7137 305.6547 0006613 130.9991 229.1797 14.84821544520994
DMC3-FM2                
1 40716U 15032B   25068.93757365  .00001390  00000+0  16965-3 0  9997
2 40716  97.7193 306.9270 0008307 137.9407 222.2447 14.84851812520992
DMC3-FM3                
1 40717U 15032C   25068.91181430  .00001411  00000+0  17263-3 0  9996
2 40717  97.7245 308.3068 0009798 136.3056 223.8936 14.84724206520996
